Edisona,e,11.21789,64.16601,284.70755,3.0157175,0.18819934,0.1112119,92.45732,11/5/1990,1950.0,9.59,0.25
Edith,e,3.21324,274.38455,138.07137,3.1386928,0.17724780,0.1977976,188.23595,11/5/1990,1950.0,9.38,0.22
Edmee,e,13.10117,107.19896,142.22885,2.7416715,0.21711056,0.0775147,330.37287,11/5/1990,1950.0,10.59,0.15
Edmondson,e,2.46825,76.60534,51.07829,3.1592398,0.17552145,0.2441105,5.35834,11/5/1990,1950.0,11.50,0.25
Edna,e,21.44752,292.69046,75.81959,3.1973397,0.17239351,0.1902261,17.35365,11/5/1990,1950.0,9.25,0.15
Eduarda,e,4.68158,26.81348,40.68454,2.7454182,0.21666627,0.1173890,149.11206,11/5/1990,1950.0,10.38,0.25
Educatio,e,4.10325,226.79864,77.38191,2.2154414,0.29889158,0.1636707,329.11968,11/5/1990,1950.0,13.60,0.25
Edwin,e,7.91196,10.45215,50.82749,2.9847149,0.19113921,0.0596764,298.57451,11/5/1990,1950.0,10.41,0.15
Efimov,e,5.71087,274.80970,90.69097,2.2287232,0.29622376,0.2317210,76.20158,11/5/1990,1950.0,13.60,0.25
Efremiana,e,15.39615,66.44081,42.72873,3.1251696,0.17839952,0.0862213,329.43977,11/5/1990,1950.0,10.60,0.25
Egeria,e,16.51667,42.73992,81.30839,2.5760370,0.23838336,0.0865444,227.95813,11/5/1990,1950.0,6.71,0.15
Ehrdni,e,6.44895,22.88238,347.54480,2.4732228,0.25340151,0.0975792,235.95012,11/5/1990,1950.0,13.23,0.25
Ehrsson,e,2.24935,348.00198,187.07075,2.4082231,0.26372967,0.2319520,321.04955,11/5/1990,1950.0,12.70,0.25
Eicher,e,14.49098,181.09597,34.02525,2.6269442,0.23148763,0.1098637,199.07293,11/5/1990,1950.0,12.10,0.25
Eichsfeldia,e,6.06736,134.44610,85.42673,2.3452789,0.27441784,0.0712750,126.02686,11/5/1990,1950.0,9.97,0.15
Einstein,e,22.67903,356.53898,217.59118,1.9333275,0.36664513,0.0985714,157.89924,11/5/1990,1950.0,12.96,0.25
Ekard,e,15.85344,230.10579,110.55106,2.6697450,0.22594327,0.3227367,238.62903,11/5/1990,1950.0,9.01,0.15
El Djezair,e,8.88294,66.84421,177.34801,2.8102190,0.20921548,0.1019795,297.60361,11/5/1990,1950.0,10.17,0.25
El Leoncito,e,6.63219,156.76819,181.04327,3.6430044,0.14174721,0.0500753,161.77547,11/5/1990,1950.0,10.55,0.15
Elachi,e,24.11255,184.54301,322.49156,1.8721729,0.38475576,0.0807538,279.26851,11/5/1990,1950.0,13.30,0.25
Elba,e,8.91014,142.30246,191.09924,2.7407420,0.21722102,0.1387135,132.09477,11/5/1990,1950.0,11.75,0.15
Elektra,e,22.87984,145.27470,234.69652,3.1141634,0.17934612,0.2177396,249.01837,11/5/1990,1950.0,7.06,0.15
Eleonora,e,18.43489,140.04186,5.52345,2.7962463,0.21078560,0.1170051,304.55334,11/5/1990,1950.0,6.32,0.32
Eleutheria,e,9.26327,58.02436,138.82285,3.1296185,0.17801925,0.0976287,183.21494,11/5/1990,1950.0,9.33,0.15
Elfriede,e,17.00991,110.69370,230.81749,3.1867084,0.17325692,0.0852847,311.57981,11/5/1990,1950.0,8.24,0.15
Eliane,e,14.50068,131.70581,164.95461,2.6165625,0.23286671,0.1735810,117.40064,11/5/1990,1950.0,10.80,0.25
Elinor,e,13.95830,331.95730,22.59519,2.6369395,0.23017271,0.1969160,133.79129,11/5/1990,1950.0,11.70,0.25
Elisa,e,5.95844,192.28560,124.72649,2.2976920,0.28298691,0.2054413,321.37844,11/5/1990,1950.0,12.61,0.25
Elisabetha,e,13.76296,106.10624,94.58710,2.7627814,0.21462697,0.0439367,140.78240,11/5/1990,1950.0,9.19,0.15
Ella,e,1.81359,22.77105,332.02990,2.4492902,0.25712464,0.1540314,10.87503,11/5/1990,1950.0,10.23,0.15
Ellen,e,23.05051,344.03710,59.46242,1.8569552,0.38949504,0.0547085,27.30342,11/5/1990,1950.0,14.41,0.25
Ellicott,e,10.27624,211.96130,319.10945,3.4437238,0.15422743,0.0567259,326.40787,11/5/1990,1950.0,10.24,0.15
Elliot,e,5.72639,11.37697,75.77111,2.2960985,0.28328155,0.1056060,232.40431,11/5/1990,1950.0,13.26,0.15
Elly,e,14.97745,355.80079,108.52382,2.5533183,0.24157202,0.0575996,146.63544,11/5/1990,1950.0,10.75,0.25
Elmer,e,8.72556,205.66154,147.06493,2.7878984,0.21173305,0.1721453,273.59689,11/5/1990,1950.0,12.80,0.25
Elpis,e,8.64383,169.70964,210.41387,2.7131515,0.22054286,0.1163063,26.36679,11/5/1990,1950.0,7.72,0.01
Elsa,e,2.00419,106.80956,309.39344,2.4166768,0.26234707,0.1869109,75.05234,11/5/1990,1950.0,9.30,0.30
Eltigen,e,2.22868,127.55808,168.93728,3.1813441,0.17369532,0.1467706,192.02843,11/5/1990,1950.0,11.20,0.15
Elvira,e,1.15933,231.21708,135.76161,2.8834900,0.20129195,0.0924407,177.90297,11/5/1990,1950.0,9.96,0.25
Elyna,e,8.52531,304.35857,90.77124,3.0139642,0.18836358,0.0930974,97.28186,11/5/1990,1950.0,10.77,0.25
Emanuela,e,10.22952,299.45252,27.46071,2.9866495,0.19095353,0.1956573,189.65697,11/5/1990,1950.0,9.93,0.15
Emita,e,9.84332,66.51656,348.07662,2.7419790,0.21707404,0.1556027,260.89358,11/5/1990,1950.0,8.75,0.15
Emma,e,7.99720,303.91230,55.83094,3.0417957,0.18578430,0.1530877,180.23227,11/5/1990,1950.0,8.73,0.15
Endate,e,2.72092,325.31230,101.30917,2.3917677,0.26645604,0.1457295,275.20696,11/5/1990,1950.0,13.10,0.25
Endymion,e,7.32812,232.20492,225.73280,2.5688860,0.23937943,0.1280035,244.36905,11/5/1990,1950.0,10.15,0.15
Eniph,f,21:44:11,9:53,2.4,2000
Enirac,e,30.34248,145.16909,64.38193,2.6470598,0.22885396,0.3136783,299.15340,11/5/1990,1950.0,12.80,0.25
Ensor,e,2.43810,17.98628,343.76141,2.7566686,0.21534125,0.2041294,175.54614,11/5/1990,1950.0,12.30,0.25
Eos,e,10.87494,141.61938,192.20143,3.0133313,0.18842293,0.0971218,96.06451,11/5/1990,1950.0,7.68,0.16
Epeios,e,9.16553,175.89784,232.72656,5.1924396,0.08330036,0.0573623,130.46028,11/5/1990,1950.0,11.10,0.25
Epimetheus,e,4.03313,253.67701,203.54396,2.2237509,0.29721783,0.0919339,306.62988,11/5/1990,1950.0,12.80,0.25
Epona,e,29.29985,235.11836,49.39654,1.5045801,0.53404899,0.7019340,85.15883,11/5/1990,1950.0,15.50,0.25
Epstein,e,9.54291,310.36124,153.28059,3.0087603,0.18885248,0.0701789,12.19268,11/5/1990,1950.0,11.67,0.25
Epyaxa,e,5.20054,7.35695,115.22648,2.1962153,0.30282499,0.0790227,134.66505,11/5/1990,1950.0,12.40,0.25
Erathosthenes,e,0.72118,141.88505,239.76920,3.1079160,0.17988716,0.1630869,154.30604,11/5/1990,1950.0,12.20,0.25
Erato,e,2.22704,125.24491,274.20044,3.1141448,0.17934773,0.1848820,184.78079,11/5/1990,1950.0,8.24,0.25
Erbisbuhl,e,21.01544,296.72803,97.45095,2.3598920,0.27187288,0.3751494,163.74393,11/5/1990,1950.0,12.00,0.25
Ercilla,e,2.23500,176.31635,107.20929,2.4216933,0.26153231,0.1962433,229.52832,11/5/1990,1950.0,14.13,0.25
Erda,e,12.72243,190.39021,114.41630,3.1117719,0.17955291,0.1235306,16.29250,11/5/1990,1950.0,9.80,0.15
Erfordia,e,7.08473,287.78200,255.64491,3.1308269,0.17791620,0.0417704,225.95988,11/5/1990,1950.0,10.92,0.15
Eri,e,14.27764,266.72670,10.55800,2.6845866,0.22407218,0.1533018,141.71967,11/5/1990,1950.0,12.94,0.15
Erida,e,6.92783,38.11439,176.31924,3.0570010,0.18439991,0.1993805,67.35595,11/5/1990,1950.0,9.76,0.15
Eriepa,e,7.48743,112.43761,300.32305,2.2493321,0.29216197,0.2481787,51.13844,11/5/1990,1950.0,13.60,0.25
Erigone,e,4.80472,159.78052,297.38599,2.3672630,0.27060406,0.1918016,257.44474,11/5/1990,1950.0,9.51,0.15
Erika,e,7.90918,34.59585,297.10872,2.9143399,0.19810424,0.1701784,116.75901,11/5/1990,1950.0,9.66,0.15
Erin,e,6.03924,252.49279,274.13391,2.5455456,0.24267931,0.1805723,345.64927,11/5/1990,1950.0,11.70,0.25
Eriphyla,e,3.19448,104.93796,250.30030,2.8716366,0.20253955,0.0880222,200.17063,11/5/1990,1950.0,9.27,0.25
Erminia,e,25.01345,2.49947,101.95020,2.9227902,0.19724573,0.0509039,294.55877,11/5/1990,1950.0,8.46,0.15
Erna,e,4.20811,315.73679,35.97521,2.9158875,0.19794655,0.1796158,30.06655,11/5/1990,1950.0,10.38,0.15
Ernestina,e,11.52677,40.53787,97.76937,2.8679327,0.20293205,0.1098055,239.62562,11/5/1990,1950.0,10.70,0.25
Eros,e,10.82682,303.73925,178.58236,1.4583234,0.55965875,0.2229907,345.91883,11/5/1990,1950.0,10.74,0.25
Erynia,e,8.08185,132.36798,277.04660,2.4465591,0.25755531,0.2060880,82.83574,11/5/1990,1950.0,11.58,0.25
Esclangona,e,22.32043,282.97257,267.60232,1.8661808,0.38661035,0.0320667,36.71756,11/5/1990,1950.0,12.74,0.25
Esperanto,e,9.78083,42.64820,159.73657,3.0955220,0.18096860,0.0706083,356.72481,11/5/1990,1950.0,10.36,0.15
Espinette,e,3.87866,143.49583,175.27464,2.2832618,0.28567386,0.2787996,310.65349,11/5/1990,1950.0,13.10,0.25
Esther,e,8.65113,141.84567,255.49439,2.4139212,0.26279641,0.2436505,145.97050,11/5/1990,1950.0,10.30,0.25
Estonia,e,4.87680,1.10363,190.84990,2.7689867,0.21390590,0.0665770,51.81844,11/5/1990,1950.0,11.30,0.15
Ethel,e,1.51700,29.79368,297.32219,3.0618321,0.18396365,0.1367239,268.08540,11/5/1990,1950.0,11.60,0.25
Etheridgea,e,6.04511,21.75960,337.46607,3.0302617,0.18684602,0.0968941,122.00400,11/5/1990,1950.0,9.63,0.15
Ethiopia,e,8.27331,122.90941,218.32412,2.3826642,0.26798459,0.2262887,158.25235,11/5/1990,1950.0,12.26,0.25
Euboea,e,7.85447,56.97637,229.47132,2.6125901,0.23339801,0.1523465,63.62123,11/5/1990,1950.0,11.51,0.15
Eucharis,e,18.68806,143.52495,313.28245,3.1380868,0.17729915,0.2029339,169.56611,11/5/1990,1950.0,7.77,0.05
Euclides,e,7.42185,192.85822,241.90717,2.7933468,0.21111388,0.2115875,114.76214,11/5/1990,1950.0,13.40,0.25
Eudora,e,10.47964,162.51954,154.53705,2.8697026,0.20274434,0.3075071,246.65541,11/5/1990,1950.0,9.87,0.15
Euforbo,e,18.96177,112.84744,317.50636,5.1585209,0.08412330,0.1194198,105.21028,11/5/1990,1950.0,9.00,0.25
Eugenia,e,6.60918,147.35304,86.47664,2.7225558,0.21940114,0.0806247,276.06160,11/5/1990,1950.0,7.27,0.15
Eugenisis,e,4.82719,228.77374,185.15298,2.7929162,0.21116271,0.0565636,325.58164,11/5/1990,1950.0,10.22,0.15
Eukrate,e,25.01362,359.85432,54.40079,2.7402834,0.21727555,0.2442830,195.13406,11/5/1990,1950.0,8.00,0.07
Eulalia,e,2.28625,186.06342,206.32204,2.4867756,0.25133281,0.1309870,164.75890,11/5/1990,1950.0,10.97,0.25
Euler,e,8.52231,178.24542,51.35118,2.4168884,0.26231261,0.0686446,312.42545,11/5/1990,1950.0,12.20,0.25
Eunike,e,23.24647,153.42657,224.20868,2.7403909,0.21726276,0.1269962,82.81260,11/5/1990,1950.0,7.73,0.27
Eunomia,e,11.76200,292.89357,97.63822,2.6451376,0.22910347,0.1853001,59.43315,11/5/1990,1950.0,5.22,0.20
Euphemia,e,13.86983,105.21050,39.36372,2.6218595,0.23216137,0.1152033,253.78599,11/5/1990,1950.0,11.30,0.25
Euphrosyne,e,26.33562,30.62272,62.96102,3.1451545,0.17670185,0.2288464,51.70587,11/5/1990,1950.0,6.53,0.15
Eupraksia,e,3.84477,337.86726,42.75665,3.9925369,0.12354656,0.2085212,174.67536,11/5/1990,1950.0,11.00,0.25
